{"type": "FeatureCollection", "features": [ {"type": "Feature", "properties": {"norad_id": 66558, "name": "STARLINK-35695", "group": "last-30-days", "lat": -0.5659116811856879, "lon": -64.31078571871093, "alt_km": 415.6700532944451, "timestamp": "2025-12-13T18:50:03.172625+00:00", "meta": {"OBJECT_NAME": "STARLINK-35695", "OBJECT_ID": "2025-268B", "EPOCH": "2025-12-13T00:00:07.999776", "MEAN_MOTION": 15.50654603, "ECCENTRICITY": 0.00033998, "INCLINATION": 43, "RA_OF_ASC_NODE": 119.6723, "ARG_OF_PERICENTER": 271.8856, "MEAN_ANOMALY": 203.7262, "EPHEMERIS_TYPE": 0, "CLASSIFICATION_TYPE": "U", "NORAD_CAT_ID": 66558, "ELEMENT_SET_NO": 999, "REV_AT_EPOCH": 471, "BSTAR": -0.0028094379, "MEAN_MOTION_DOT": -0.00162274, "MEAN_MOTION_DDOT": 0}, "tle": {"line1": "1 66558U 25268B   25347.00009259 -.00162274  00000+0 -28094-2 0  9997", "line2": "2 66558  43.0000 119.6723 0003399 271.8856 203.7262 15.50654603  4718"}}, "geometry": {"type": "Point", "coordinates": [-64.31078571871093, -0.5659116811856879]}}, {"type": "Feature", "properties": {"norad_id": 66559, "name": "STARLINK-35419", "group": "last-30-days", "lat": -2.1727451436349683, "lon": -62.589877651178746, "alt_km": 413.9283830085096, "timestamp": "2025-12-13T18:50:03.172635+00:00", "meta": {"OBJECT_NAME": "STARLINK-35419", "OBJECT_ID": "2025-268C", "EPOCH": "2025-12-13T07:13:39.386784", "MEAN_MOTION": 15.5068839, "ECCENTRICITY": 0.0002656, "INCLINATION": 42.9989, "RA_OF_ASC_NODE": 117.9068, "ARG_OF_PERICENTER": 253.8719, "MEAN_ANOMALY": 106.1849, "EPHEMERIS_TYPE": 0, "CLASSIFICATION_TYPE": "U", "NORAD_CAT_ID": 66559, "ELEMENT_SET_NO": 999, "REV_AT_EPOCH": 471, "BSTAR": 0.0020772155, "MEAN_MOTION_DOT": 0.00123956, "MEAN_MOTION_DDOT": 0}, "tle": {"line1": "1 66559U 25268C   25347.30115031  .00123956  00000+0  20772-2 0  9994", "line2": "2 66559  42.9989 117.9068 0002656 253.8719 106.1849 15.50688390  4716"}}, "geometry": {"type": "Point", "coordinates": [-62.589877651178746, -2.1727451436349683]}}, {"type": "Feature", "properties": {"norad_id": 66560, "name": "STARLINK-35411", "group": "last-30-days", "lat": -3.530843880639698, "lon": -61.131033646769616, "alt_km": 414.30369021876504, "timestamp": "2025-12-13T18:50:03.172651+00:00", "meta": {"OBJECT_NAME": "STARLINK-35411", "OBJECT_ID": "2025-268D", "EPOCH": "2025-12-13T07:13:08.471136", "MEAN_MOTION": 15.50664996, "ECCENTRICITY": 0.00016874, "INCLINATION": 42.9992, "RA_OF_ASC_NODE": 117.9044, "ARG_OF_PERICENTER": 256.1982, "MEAN_ANOMALY": 103.869, "EPHEMERIS_TYPE": 0, "CLASSIFICATION_TYPE": "U", "NORAD_CAT_ID": 66560, "ELEMENT_SET_NO": 999, "REV_AT_EPOCH": 471, "BSTAR": 0.0023770981, "MEAN_MOTION_DOT": 0.00142107, "MEAN_MOTION_DDOT": 0}, "tle": {"line1": "1 66560U 25268D   25347.30079249  .00142107  00000+0  23771-2 0  9997", "line2": "2 66560  42.9992 117.9044 0001687 256.1982 103.8690 15.50664996  4711"}}, "geometry": {"type": "Point", "coordinates": [-61.131033646769616, -3.530843880639698]}}, {"type": "Feature", "properties": {"norad_id": 66561, "name": "STARLINK-35305", "group": "last-30-days", "lat": -6.089817468160512, "lon": -58.36325646155806, "alt_km": 414.3731849404676, "timestamp": "2025-12-13T18:50:03.172661+00:00", "meta": {"OBJECT_NAME": "STARLINK-35305", "OBJECT_ID": "2025-268E", "EPOCH": "2025-12-13T07:12:09.863424", "MEAN_MOTION": 15.50653772, "ECCENTRICITY": 0.00019076, "INCLINATION": 42.999, "RA_OF_ASC_NODE": 117.8983, "ARG_OF_PERICENTER": 248.8765, "MEAN_ANOMALY": 111.1891, "EPHEMERIS_TYPE": 0, "CLASSIFICATION_TYPE": "U", "NORAD_CAT_ID": 66561, "ELEMENT_SET_NO": 999, "REV_AT_EPOCH": 471, "BSTAR": 0.0023845096, "MEAN_MOTION_DOT": 0.00142502, "MEAN_MOTION_DDOT": 0}, "tle": {"line1": "1 66561U 25268E   25347.30011416  .00142502  00000+0  23845-2 0  9991", "line2": "2 66561  42.9990 117.8983 0001907 248.8765 111.1891 15.50653772  4718"}}, "geometry": {"type": "Point", "coordinates": [-58.36325646155806, -6.089817468160512]}}, {"type": "Feature", "properties": {"norad_id": 66562, "name": "STARLINK-35579", "group": "last-30-days", "lat": -4.851909137691911, "lon": -59.70620752932831, "alt_km": 414.58670455642005, "timestamp": "2025-12-13T18:50:03.172671+00:00", "meta": {"OBJECT_NAME": "STARLINK-35579", "OBJECT_ID": "2025-268F", "EPOCH": "2025-12-13T07:12:39.764736", "MEAN_MOTION": 15.50680624, "ECCENTRICITY": 0.00017316, "INCLINATION": 42.9998, "RA_OF_ASC_NODE": 117.9016, "ARG_OF_PERICENTER": 277.5188, "MEAN_ANOMALY": 82.5475, "EPHEMERIS_TYPE": 0, "CLASSIFICATION_TYPE": "U", "NORAD_CAT_ID": 66562, "ELEMENT_SET_NO": 999, "REV_AT_EPOCH": 471, "BSTAR": 0.0036072311, "MEAN_MOTION_DOT": 0.00218067, "MEAN_MOTION_DDOT": 0}, "tle": {"line1": "1 66562U 25268F   25347.30046024  .00218067  00000+0  36072-2 0  9991", "line2": "2 66562  42.9998 117.9016 0001731 277.5188  82.5475 15.50680624  4713"}}, "geometry": {"type": "Point", "coordinates": [-59.70620752932831, -4.851909137691911]}}, {"type": "Feature", "properties": {"norad_id": 66563, "name": "STARLINK-35437", "group": "last-30-days", "lat": -7.4546811877851065, "lon": -56.87029567994122, "alt_km": 414.7385178260829, "timestamp": "2025-12-13T18:50:03.172684+00:00", "meta": {"OBJECT_NAME": "STARLINK-35437", "OBJECT_ID": "2025-268G", "EPOCH": "2025-12-13T07:11:40.442496", "MEAN_MOTION": 15.5068465, "ECCENTRICITY": 0.00017585, "INCLINATION": 42.9998, "RA_OF_ASC_NODE": 117.896, "ARG_OF_PERICENTER": 274.3854, "MEAN_ANOMALY": 85.6805, "EPHEMERIS_TYPE": 0, "CLASSIFICATION_TYPE": "U", "NORAD_CAT_ID": 66563, "ELEMENT_SET_NO": 999, "REV_AT_EPOCH": 471, "BSTAR": 0.003611484, "MEAN_MOTION_DOT": 0.00218364, "MEAN_MOTION_DDOT": 0}, "tle": {"line1": "1 66563U 25268G   25347.29977364  .00218364  00000+0  36115-2 0  9998", "line2": "2 66563  42.9998 117.8960 0001758 274.3854  85.6805 15.50684650  4719"}}, "geometry": {"type": "Point", "coordinates": [-56.87029567994122, -7.4546811877851065]}}, {"type": "Feature", "properties": {"norad_id": 66564, "name": "STARLINK-35358", "group": "last-30-days", "lat": -8.688354458006287, "lon": -55.507904581896426, "alt_km": 415.1066429649836, "timestamp": "2025-12-13T18:50:03.172694+00:00", "meta": {"OBJECT_NAME": "STARLINK-35358", "OBJECT_ID": "2025-268H", "EPOCH": "2025-12-13T07:11:10.893696", "MEAN_MOTION": 15.50655101, "ECCENTRICITY": 0.00016053, "INCLINATION": 43, "RA_OF_ASC_NODE": 117.8937, "ARG_OF_PERICENTER": 277.7652, "MEAN_ANOMALY": 82.3026, "EPHEMERIS_TYPE": 0, "CLASSIFICATION_TYPE": "U", "NORAD_CAT_ID": 66564, "ELEMENT_SET_NO": 999, "REV_AT_EPOCH": 471, "BSTAR": 0.0029732082, "MEAN_MOTION_DOT": 0.00178603, "MEAN_MOTION_DDOT": 0}, "tle": {"line1": "1 66564U 25268H   25347.29943164  .00178603  00000+0  29732-2 0  9998", "line2": "2 66564  43.0000 117.8937 0001605 277.7652  82.3026 15.50655101  4712"}}, "geometry": {"type": "Point", "coordinates": [-55.507904581896426, -8.688354458006287]}}, {"type": "Feature", "properties": {"norad_id": 66565, "name": "STARLINK-35893", "group": "last-30-days", "lat": -10.020790525836725, "lon": -54.021307794615325, "alt_km": 414.67815070829874, "timestamp": "2025-12-13T18:50:03.172703+00:00", "meta": {"OBJECT_NAME": "STARLINK-35893", "OBJECT_ID": "2025-268J", "EPOCH": "2025-12-13T07:10:40.944864", "MEAN_MOTION": 15.50675168, "ECCENTRICITY": 0.00023857, "INCLINATION": 42.9998, "RA_OF_ASC_NODE": 117.8901, "ARG_OF_PERICENTER": 265.1059, "MEAN_ANOMALY": 94.9529, "EPHEMERIS_TYPE": 0, "CLASSIFICATION_TYPE": "U", "NORAD_CAT_ID": 66565, "ELEMENT_SET_NO": 999, "REV_AT_EPOCH": 471, "BSTAR": 0.0035757986, "MEAN_MOTION_DOT": 0.00216069, "MEAN_MOTION_DDOT": 0}, "tle": {"line1": "1 66565U 25268J   25347.29908501  .00216069  00000+0  35758-2 0  9999", "line2": "2 66565  42.9998 117.8901 0002385 265.1059  94.9529 15.50675168  4718"}}, "geometry": {"type": "Point", "coordinates": [-54.021307794615325, -10.020790525836725]}}, {"type": "Feature", "properties": {"norad_id": 66566, "name": "STARLINK-35871", "group": "last-30-days", "lat": -11.243283773737389, "lon": -52.63959860643254, "alt_km": 415.24969281214635, "timestamp": "2025-12-13T18:50:03.172716+00:00", "meta": {"OBJECT_NAME": "STARLINK-35871", "OBJECT_ID": "2025-268K", "EPOCH": "2025-12-13T07:10:11.470368", "MEAN_MOTION": 15.50653112, "ECCENTRICITY": 0.00017939, "INCLINATION": 42.9995, "RA_OF_ASC_NODE": 117.8868, "ARG_OF_PERICENTER": 271.8651, "MEAN_ANOMALY": 88.2003, "EPHEMERIS_TYPE": 0, "CLASSIFICATION_TYPE": "U", "NORAD_CAT_ID": 66566, "ELEMENT_SET_NO": 999, "REV_AT_EPOCH": 471, "BSTAR": 0.0025958318, "MEAN_MOTION_DOT": 0.00155415, "MEAN_MOTION_DDOT": 0}, "tle": {"line1": "1 66566U 25268K   25347.29874387  .00155415  00000+0  25958-2 0  9992", "line2": "2 66566  42.9995 117.8868 0001793 271.8651  88.2003 15.50653112  4710"}}, "geometry": {"type": "Point", "coordinates": [-52.63959860643254, -11.243283773737389]}}, {"type": "Feature", "properties": {"norad_id": 66567, "name": "STARLINK-35825", "group": "last-30-days", "lat": -12.57186536847095, "lon": -51.11444593835487, "alt_km": 415.0437028439883, "timestamp": "2025-12-13T18:50:03.172726+00:00", "meta": {"OBJECT_NAME": "STARLINK-35825", "OBJECT_ID": "2025-268L", "EPOCH": "2025-12-13T07:09:41.858496", "MEAN_MOTION": 15.50677164, "ECCENTRICITY": 0.00017983, "INCLINATION": 42.9993, "RA_OF_ASC_NODE": 117.8851, "ARG_OF_PERICENTER": 267.3878, "MEAN_ANOMALY": 92.6776, "EPHEMERIS_TYPE": 0, "CLASSIFICATION_TYPE": "U", "NORAD_CAT_ID": 66567, "ELEMENT_SET_NO": 999, "REV_AT_EPOCH": 471, "BSTAR": 0.0034479001, "MEAN_MOTION_DOT": 0.00208128, "MEAN_MOTION_DDOT": 0}, "tle": {"line1": "1 66567U 25268L   25347.29840114  .00208128  00000+0  34479-2 0  9992", "line2": "2 66567  42.9993 117.8851 0001798 267.3878  92.6776 15.50677164  4716"}}, "geometry": {"type": "Point", "coordinates": [-51.11444593835487, -12.57186536847095]}}]}